STARLINK-1769
1 26382C 20062BL  21325.16770546  .00005297  00000-0  35483-3 0  3254
2 26382  53.0517 177.4894 0002064  79.3411 154.4299 15.06398381    12
